STARLINK-36455          
1 67418U 26005Q   26037.08877365  .00130184  00000+0  21898-2 0  9997
2 67418  42.9994  59.0372 0001169 240.3321 119.7423 15.50558691  3839
STARLINK-36424          
1 67419U 26005R   26036.50868968  .00121663  00000+0  20442-2 0  9999
2 67419  42.9997  62.4237 0001334 252.7307 107.3407 15.50625233  3748
STARLINK-35564          
1 67420U 26005S   26037.15250345  .00136095  00000+0  22862-2 0  9990
2 67420  42.9995  58.6544 0001244 280.1792  79.8928 15.50570670  3845
STARLINK-36431          
1 67421U 26005T   26037.16668981  .00027086  00000+0  65432-3 0  9991
2 67421  43.0003  58.7715 0001113 243.5471 114.2171 15.40656418  4918
STARLINK-36418          
1 67422U 26005U   26037.08740153  .00096958  00000+0  16395-2 0  9992
2 67422  42.9996  59.0264 0001117 258.0504 102.0231 15.50555291  3833
STARLINK-36465          
1 67423U 26005V   26037.16668981  .00025381  00000+0  61288-3 0  9994
2 67423  43.0002  58.7111 0001014 309.4584  73.0677 15.40697894  4866
STARLINK-36362          
1 67424U 26005W   26037.16668981  .00032403  00000+0  78084-3 0  9990
2 67424  42.9999  58.6504 0000664 281.6919 125.8530 15.40654510  5120
STARLINK-36447          
1 67425U 26005X   26037.16668981 -.01852412  00000+0 -44924-1 0  9998
2 67425  43.0000  58.5987 0001505 270.2276 158.9486 15.43479977  5127
STARLINK-36146          
1 67426U 26005Y   26037.15044590  .00123807  00000+0  20839-2 0  9998
2 67426  42.9997  58.6377 0001192 270.4189  89.6535 15.50566300  3838
STARLINK-36459          
1 67427U 26005Z   26037.08568660  .00081847  00000+0  13877-2 0  9991
2 67427  42.9997  59.0118 0001427 267.6803  92.3894 15.50552929  3829
STARLINK-36464          
1 67428U 26005AA  26037.08500002  .00084460  00000+0  14312-2 0  9997
2 67428  42.9996  59.0063 0001372 262.9103  97.1601 15.50555783  3828
STARLINK-36513          
1 67429U 26005AB  26037.08465842  .00082685  00000+0  14015-2 0  9997
2 67429  42.9996  59.0030 0000982 262.7586  97.3163 15.50556707  3824
