CCSDS_OMM_VERS = 2.0
CREATION_DATE  = 
ORIGINATOR     = 

OBJECT_NAME    = STARLINK-36455
OBJECT_ID      = 2026-005Q
CENTER_NAME    = EARTH
REF_FRAME      = TEME
TIME_SYSTEM    = UTC
MEAN_ELEMENT_THEORY = SGP/SGP4

EPOCH          = 2026-02-06T02:07:50.043360
MEAN_MOTION    = 15.50558691
ECCENTRICITY   = .0001169
INCLINATION    = 42.9994
RA_OF_ASC_NODE = 59.0372
ARG_OF_PERICENTER = 240.3321
MEAN_ANOMALY   = 119.7423

EPHEMERIS_TYPE = 0
CLASSIFICATION_TYPE = U
NORAD_CAT_ID   = 67418
ELEMENT_SET_NO = 999
REV_AT_EPOCH   = 383
BSTAR          = .21898E-2
MEAN_MOTION_DOT = .130184E-2
MEAN_MOTION_DDOT = 0

CCSDS_OMM_VERS = 2.0
CREATION_DATE  = 
ORIGINATOR     = 

OBJECT_NAME    = STARLINK-36424
OBJECT_ID      = 2026-005R
CENTER_NAME    = EARTH
REF_FRAME      = TEME
TIME_SYSTEM    = UTC
MEAN_ELEMENT_THEORY = SGP/SGP4

EPOCH          = 2026-02-05T12:12:30.788352
MEAN_MOTION    = 15.50625233
ECCENTRICITY   = .0001334
INCLINATION    = 42.9997
RA_OF_ASC_NODE = 62.4237
ARG_OF_PERICENTER = 252.7307
MEAN_ANOMALY   = 107.3407

EPHEMERIS_TYPE = 0
CLASSIFICATION_TYPE = U
NORAD_CAT_ID   = 67419
ELEMENT_SET_NO = 999
REV_AT_EPOCH   = 374
BSTAR          = .20442E-2
MEAN_MOTION_DOT = .121663E-2
MEAN_MOTION_DDOT = 0

CCSDS_OMM_VERS = 2.0
CREATION_DATE  = 
ORIGINATOR     = 

OBJECT_NAME    = STARLINK-35564
OBJECT_ID      = 2026-005S
CENTER_NAME    = EARTH
REF_FRAME      = TEME
TIME_SYSTEM    = UTC
MEAN_ELEMENT_THEORY = SGP/SGP4

EPOCH          = 2026-02-06T03:39:36.298080
MEAN_MOTION    = 15.50570670
ECCENTRICITY   = .0001244
INCLINATION    = 42.9995
RA_OF_ASC_NODE = 58.6544
ARG_OF_PERICENTER = 280.1792
MEAN_ANOMALY   = 79.8928

EPHEMERIS_TYPE = 0
CLASSIFICATION_TYPE = U
NORAD_CAT_ID   = 67420
ELEMENT_SET_NO = 999
REV_AT_EPOCH   = 384
BSTAR          = .22862E-2
MEAN_MOTION_DOT = .136095E-2
MEAN_MOTION_DDOT = 0

CCSDS_OMM_VERS = 2.0
CREATION_DATE  = 
ORIGINATOR     = 

OBJECT_NAME    = STARLINK-36431
OBJECT_ID      = 2026-005T
CENTER_NAME    = EARTH
REF_FRAME      = TEME
TIME_SYSTEM    = UTC
MEAN_ELEMENT_THEORY = SGP/SGP4

EPOCH          = 2026-02-06T04:00:01.999584
MEAN_MOTION    = 15.40656418
ECCENTRICITY   = .0001113
INCLINATION    = 43.0003
RA_OF_ASC_NODE = 58.7715
ARG_OF_PERICENTER = 243.5471
MEAN_ANOMALY   = 114.2171

EPHEMERIS_TYPE = 0
CLASSIFICATION_TYPE = U
NORAD_CAT_ID   = 67421
ELEMENT_SET_NO = 999
REV_AT_EPOCH   = 491
BSTAR          = .65432E-3
MEAN_MOTION_DOT = .27086E-3
MEAN_MOTION_DDOT = 0

CCSDS_OMM_VERS = 2.0
CREATION_DATE  = 
ORIGINATOR     = 

OBJECT_NAME    = STARLINK-36418
OBJECT_ID      = 2026-005U
CENTER_NAME    = EARTH
REF_FRAME      = TEME
TIME_SYSTEM    = UTC
MEAN_ELEMENT_THEORY = SGP/SGP4

EPOCH          = 2026-02-06T02:05:51.492192
MEAN_MOTION    = 15.50555291
ECCENTRICITY   = .0001117
INCLINATION    = 42.9996
RA_OF_ASC_NODE = 59.0264
ARG_OF_PERICENTER = 258.0504
MEAN_ANOMALY   = 102.0231

EPHEMERIS_TYPE = 0
CLASSIFICATION_TYPE = U
NORAD_CAT_ID   = 67422
ELEMENT_SET_NO = 999
REV_AT_EPOCH   = 383
BSTAR          = .16395E-2
MEAN_MOTION_DOT = .96958E-3
MEAN_MOTION_DDOT = 0

CCSDS_OMM_VERS = 2.0
CREATION_DATE  = 
ORIGINATOR     = 

OBJECT_NAME    = STARLINK-36465
OBJECT_ID      = 2026-005V
CENTER_NAME    = EARTH
REF_FRAME      = TEME
TIME_SYSTEM    = UTC
MEAN_ELEMENT_THEORY = SGP/SGP4

EPOCH          = 2026-02-06T04:00:01.999584
MEAN_MOTION    = 15.40697894
ECCENTRICITY   = .0001014
INCLINATION    = 43.0002
RA_OF_ASC_NODE = 58.7111
ARG_OF_PERICENTER = 309.4584
MEAN_ANOMALY   = 73.0677

EPHEMERIS_TYPE = 0
CLASSIFICATION_TYPE = U
NORAD_CAT_ID   = 67423
ELEMENT_SET_NO = 999
REV_AT_EPOCH   = 486
BSTAR          = .61288E-3
MEAN_MOTION_DOT = .25381E-3
MEAN_MOTION_DDOT = 0

CCSDS_OMM_VERS = 2.0
CREATION_DATE  = 
ORIGINATOR     = 

OBJECT_NAME    = STARLINK-36362
OBJECT_ID      = 2026-005W
CENTER_NAME    = EARTH
REF_FRAME      = TEME
TIME_SYSTEM    = UTC
MEAN_ELEMENT_THEORY = SGP/SGP4

EPOCH          = 2026-02-06T04:00:01.999584
MEAN_MOTION    = 15.40654510
ECCENTRICITY   = .0000664
INCLINATION    = 42.9999
RA_OF_ASC_NODE = 58.6504
ARG_OF_PERICENTER = 281.6919
MEAN_ANOMALY   = 125.8530

EPHEMERIS_TYPE = 0
CLASSIFICATION_TYPE = U
NORAD_CAT_ID   = 67424
ELEMENT_SET_NO = 999
REV_AT_EPOCH   = 512
BSTAR          = .78084E-3
MEAN_MOTION_DOT = .32403E-3
MEAN_MOTION_DDOT = 0

CCSDS_OMM_VERS = 2.0
CREATION_DATE  = 
ORIGINATOR     = 

OBJECT_NAME    = STARLINK-36447
OBJECT_ID      = 2026-005X
CENTER_NAME    = EARTH
REF_FRAME      = TEME
TIME_SYSTEM    = UTC
MEAN_ELEMENT_THEORY = SGP/SGP4

EPOCH          = 2026-02-06T04:00:01.999584
MEAN_MOTION    = 15.43479977
ECCENTRICITY   = .0001505
INCLINATION    = 43.0000
RA_OF_ASC_NODE = 58.5987
ARG_OF_PERICENTER = 270.2276
MEAN_ANOMALY   = 158.9486

EPHEMERIS_TYPE = 0
CLASSIFICATION_TYPE = U
NORAD_CAT_ID   = 67425
ELEMENT_SET_NO = 999
REV_AT_EPOCH   = 512
BSTAR          = -.44924E-1
MEAN_MOTION_DOT = -.1852412E-1
MEAN_MOTION_DDOT = 0

CCSDS_OMM_VERS = 2.0
CREATION_DATE  = 
ORIGINATOR     = 

OBJECT_NAME    = STARLINK-36146
OBJECT_ID      = 2026-005Y
CENTER_NAME    = EARTH
REF_FRAME      = TEME
TIME_SYSTEM    = UTC
MEAN_ELEMENT_THEORY = SGP/SGP4

EPOCH          = 2026-02-06T03:36:38.525760
MEAN_MOTION    = 15.50566300
ECCENTRICITY   = .0001192
INCLINATION    = 42.9997
RA_OF_ASC_NODE = 58.6377
ARG_OF_PERICENTER = 270.4189
MEAN_ANOMALY   = 89.6535

EPHEMERIS_TYPE = 0
CLASSIFICATION_TYPE = U
NORAD_CAT_ID   = 67426
ELEMENT_SET_NO = 999
REV_AT_EPOCH   = 383
BSTAR          = .20839E-2
MEAN_MOTION_DOT = .123807E-2
MEAN_MOTION_DDOT = 0

CCSDS_OMM_VERS = 2.0
CREATION_DATE  = 
ORIGINATOR     = 

OBJECT_NAME    = STARLINK-36459
OBJECT_ID      = 2026-005Z
CENTER_NAME    = EARTH
REF_FRAME      = TEME
TIME_SYSTEM    = UTC
MEAN_ELEMENT_THEORY = SGP/SGP4

EPOCH          = 2026-02-06T02:03:23.322240
MEAN_MOTION    = 15.50552929
ECCENTRICITY   = .0001427
INCLINATION    = 42.9997
RA_OF_ASC_NODE = 59.0118
ARG_OF_PERICENTER = 267.6803
MEAN_ANOMALY   = 92.3894

EPHEMERIS_TYPE = 0
CLASSIFICATION_TYPE = U
NORAD_CAT_ID   = 67427
ELEMENT_SET_NO = 999
REV_AT_EPOCH   = 382
BSTAR          = .13877E-2
MEAN_MOTION_DOT = .81847E-3
MEAN_MOTION_DDOT = 0

CCSDS_OMM_VERS = 2.0
CREATION_DATE  = 
ORIGINATOR     = 

OBJECT_NAME    = STARLINK-36464
OBJECT_ID      = 2026-005AA
CENTER_NAME    = EARTH
REF_FRAME      = TEME
TIME_SYSTEM    = UTC
MEAN_ELEMENT_THEORY = SGP/SGP4

EPOCH          = 2026-02-06T02:02:24.001728
MEAN_MOTION    = 15.50555783
ECCENTRICITY   = .0001372
INCLINATION    = 42.9996
RA_OF_ASC_NODE = 59.0063
ARG_OF_PERICENTER = 262.9103
MEAN_ANOMALY   = 97.1601

EPHEMERIS_TYPE = 0
CLASSIFICATION_TYPE = U
NORAD_CAT_ID   = 67428
ELEMENT_SET_NO = 999
REV_AT_EPOCH   = 382
BSTAR          = .14312E-2
MEAN_MOTION_DOT = .8446E-3
MEAN_MOTION_DDOT = 0

CCSDS_OMM_VERS = 2.0
CREATION_DATE  = 
ORIGINATOR     = 

OBJECT_NAME    = STARLINK-36513
OBJECT_ID      = 2026-005AB
CENTER_NAME    = EARTH
REF_FRAME      = TEME
TIME_SYSTEM    = UTC
MEAN_ELEMENT_THEORY = SGP/SGP4

EPOCH          = 2026-02-06T02:01:54.487488
MEAN_MOTION    = 15.50556707
ECCENTRICITY   = .0000982
INCLINATION    = 42.9996
RA_OF_ASC_NODE = 59.0030
ARG_OF_PERICENTER = 262.7586
MEAN_ANOMALY   = 97.3163

EPHEMERIS_TYPE = 0
CLASSIFICATION_TYPE = U
NORAD_CAT_ID   = 67429
ELEMENT_SET_NO = 999
REV_AT_EPOCH   = 382
BSTAR          = .14015E-2
MEAN_MOTION_DOT = .82685E-3
MEAN_MOTION_DDOT = 0

